{"fetched_at":"2026-07-20T07:40:25.481Z","source":"https://celestrak.org/NORAD/elements/gp.php?GROUP=planet&FORMAT=JSON","constellation":"superdove","records":[{"OBJECT_NAME":"FLOCK 4G-33","OBJECT_ID":"2025-009CE","EPOCH":"2026-07-19T18:42:36.620928","CLASSIFICATION_TYPE":"U","MEAN_MOTION":15.25828444,"ECCENTRICITY":0.0005094,"INCLINATION":97.3937,"RA_OF_ASC_NODE":280.2828,"ARG_OF_PERICENTER":196.6347,"MEAN_ANOMALY":163.4724,"EPHEMERIS_TYPE":0,"NORAD_CAT_ID":62685,"ELEMENT_SET_NO":999,"REV_AT_EPOCH":8377,"BSTAR":0.00012612,"MEAN_MOTION_DOT":0.00003154,"MEAN_MOTION_DDOT":0},{"OBJECT_NAME":"FLOCK 4H-1","OBJECT_ID":"2025-276AQ","EPOCH":"2026-07-19T19:36:58.408416","CLASSIFICATION_TYPE":"U","MEAN_MOTION":15.20883092,"ECCENTRICITY":0.0002489,"INCLINATION":97.4163,"RA_OF_ASC_NODE":273.9919,"ARG_OF_PERICENTER":161.2807,"MEAN_ANOMALY":198.852,"EPHEMERIS_TYPE":0,"NORAD_CAT_ID":66704,"ELEMENT_SET_NO":999,"REV_AT_EPOCH":3539,"BSTAR":0.00015955,"MEAN_MOTION_DOT":0.00003457,"MEAN_MOTION_DDOT":0},{"OBJECT_NAME":"FLOCK 4H-2","OBJECT_ID":"2025-276AR","EPOCH":"2026-07-19T18:57:54.569088","CLASSIFICATION_TYPE":"U","MEAN_MOTION":15.21155611,"ECCENTRICITY":0.000192,"INCLINATION":97.4156,"RA_OF_ASC_NODE":274.0155,"ARG_OF_PERICENTER":149.6662,"MEAN_ANOMALY":210.4685,"EPHEMERIS_TYPE":0,"NORAD_CAT_ID":66705,"ELEMENT_SET_NO":999,"REV_AT_EPOCH":3539,"BSTAR":0.00015503,"MEAN_MOTION_DOT":0.00003384,"MEAN_MOTION_DDOT":0},{"OBJECT_NAME":"FLOCK 4H-3","OBJECT_ID":"2025-276AS","EPOCH":"2026-07-19T10:53:28.507488","CLASSIFICATION_TYPE":"U","MEAN_MOTION":15.20272437,"ECCENTRICITY":0.00028289,"INCLINATION":97.4227,"RA_OF_ASC_NODE":273.6073,"ARG_OF_PERICENTER":227.0368,"MEAN_ANOMALY":133.063,"EPHEMERIS_TYPE":0,"NORAD_CAT_ID":66706,"ELEMENT_SET_NO":999,"REV_AT_EPOCH":3532,"BSTAR":0.0001491372,"MEAN_MOTION_DOT":0.00003169,"MEAN_MOTION_DDOT":0},{"OBJECT_NAME":"FLOCK 4H-4","OBJECT_ID":"2025-276AT","EPOCH":"2026-07-19T18:05:25.600128","CLASSIFICATION_TYPE":"U","MEAN_MOTION":15.20067564,"ECCENTRICITY":0.0003455,"INCLINATION":97.4209,"RA_OF_ASC_NODE":273.7672,"ARG_OF_PERICENTER":231.0583,"MEAN_ANOMALY":129.0344,"EPHEMERIS_TYPE":0,"NORAD_CAT_ID":66707,"ELEMENT_SET_NO":999,"REV_AT_EPOCH":3536,"BSTAR":0.00016902,"MEAN_MOTION_DOT":0.00003579,"MEAN_MOTION_DDOT":0},{"OBJECT_NAME":"FLOCK 4H-5","OBJECT_ID":"2025-276AU","EPOCH":"2026-07-19T17:50:52.097856","CLASSIFICATION_TYPE":"U","MEAN_MOTION":15.2093437,"ECCENTRICITY":0.0001604,"INCLINATION":97.4159,"RA_OF_ASC_NODE":273.9411,"ARG_OF_PERICENTER":136.2499,"MEAN_ANOMALY":223.8864,"EPHEMERIS_TYPE":0,"NORAD_CAT_ID":66708,"ELEMENT_SET_NO":999,"REV_AT_EPOCH":3538,"BSTAR":0.0001575,"MEAN_MOTION_DOT":0.00003417,"MEAN_MOTION_DDOT":0},{"OBJECT_NAME":"FLOCK 4H-6","OBJECT_ID":"2025-276AV","EPOCH":"2026-07-19T18:58:21.035136","CLASSIFICATION_TYPE":"U","MEAN_MOTION":15.20635606,"ECCENTRICITY":0.0002964,"INCLINATION":97.4213,"RA_OF_ASC_NODE":274.0316,"ARG_OF_PERICENTER":187.6823,"MEAN_ANOMALY":172.4368,"EPHEMERIS_TYPE":0,"NORAD_CAT_ID":66709,"ELEMENT_SET_NO":999,"REV_AT_EPOCH":3538,"BSTAR":0.00015704,"MEAN_MOTION_DOT":0.00003377,"MEAN_MOTION_DDOT":0},{"OBJECT_NAME":"FLOCK 4H-7","OBJECT_ID":"2025-276AW","EPOCH":"2026-07-19T18:33:05.783040","CLASSIFICATION_TYPE":"U","MEAN_MOTION":15.20412016,"ECCENTRICITY":0.0000697,"INCLINATION":97.417,"RA_OF_ASC_NODE":273.7678,"ARG_OF_PERICENTER":245.8647,"MEAN_ANOMALY":114.2515,"EPHEMERIS_TYPE":0,"NORAD_CAT_ID":66710,"ELEMENT_SET_NO":999,"REV_AT_EPOCH":3537,"BSTAR":0.00015406,"MEAN_MOTION_DOT":0.00003289,"MEAN_MOTION_DDOT":0},{"OBJECT_NAME":"FLOCK 4H-8","OBJECT_ID":"2025-276AX","EPOCH":"2026-07-19T18:19:30.872064","CLASSIFICATION_TYPE":"U","MEAN_MOTION":15.20520085,"ECCENTRICITY":0.0002066,"INCLINATION":97.4208,"RA_OF_ASC_NODE":273.9115,"ARG_OF_PERICENTER":240.7062,"MEAN_ANOMALY":119.3967,"EPHEMERIS_TYPE":0,"NORAD_CAT_ID":66711,"ELEMENT_SET_NO":999,"REV_AT_EPOCH":3537,"BSTAR":0.00016262,"MEAN_MOTION_DOT":0.00003487,"MEAN_MOTION_DDOT":0},{"OBJECT_NAME":"FLOCK 4H-9","OBJECT_ID":"2025-276AY","EPOCH":"2026-07-19T10:44:21.773472","CLASSIFICATION_TYPE":"U","MEAN_MOTION":15.20819696,"ECCENTRICITY":0.00028681,"INCLINATION":97.42,"RA_OF_ASC_NODE":273.6963,"ARG_OF_PERICENTER":196.3059,"MEAN_ANOMALY":163.8084,"EPHEMERIS_TYPE":0,"NORAD_CAT_ID":66712,"ELEMENT_SET_NO":999,"REV_AT_EPOCH":3533,"BSTAR":0.00015715201,"MEAN_MOTION_DOT":0.00003397,"MEAN_MOTION_DDOT":0},{"OBJECT_NAME":"FLOCK 4H-10","OBJECT_ID":"2025-276AZ","EPOCH":"2026-07-19T17:41:56.628672","CLASSIFICATION_TYPE":"U","MEAN_MOTION":15.20195538,"ECCENTRICITY":0.000326,"INCLINATION":97.4176,"RA_OF_ASC_NODE":273.6856,"ARG_OF_PERICENTER":231.8753,"MEAN_ANOMALY":128.2189,"EPHEMERIS_TYPE":0,"NORAD_CAT_ID":66713,"ELEMENT_SET_NO":999,"REV_AT_EPOCH":3536,"BSTAR":0.00016238,"MEAN_MOTION_DOT":0.00003449,"MEAN_MOTION_DDOT":0},{"OBJECT_NAME":"FLOCK 4H-11","OBJECT_ID":"2025-276BA","EPOCH":"2026-07-19T18:04:24.504096","CLASSIFICATION_TYPE":"U","MEAN_MOTION":15.23395576,"ECCENTRICITY":0.0001859,"INCLINATION":97.4181,"RA_OF_ASC_NODE":274.3163,"ARG_OF_PERICENTER":218.7624,"MEAN_ANOMALY":141.348,"EPHEMERIS_TYPE":0,"NORAD_CAT_ID":66714,"ELEMENT_SET_NO":999,"REV_AT_EPOCH":3540,"BSTAR":0.00032449,"MEAN_MOTION_DOT":0.00007651,"MEAN_MOTION_DDOT":0},{"OBJECT_NAME":"FLOCK 4H-12","OBJECT_ID":"2025-276BB","EPOCH":"2026-07-19T18:19:19.805088","CLASSIFICATION_TYPE":"U","MEAN_MOTION":15.20848817,"ECCENTRICITY":0.0002383,"INCLINATION":97.4173,"RA_OF_ASC_NODE":273.9419,"ARG_OF_PERICENTER":168.0557,"MEAN_ANOMALY":192.0735,"EPHEMERIS_TYPE":0,"NORAD_CAT_ID":66715,"ELEMENT_SET_NO":999,"REV_AT_EPOCH":3569,"BSTAR":0.00016735,"MEAN_MOTION_DOT":0.00003626,"MEAN_MOTION_DDOT":0},{"OBJECT_NAME":"FLOCK 4H-13","OBJECT_ID":"2025-276BC","EPOCH":"2026-07-19T17:36:34.074144","CLASSIFICATION_TYPE":"U","MEAN_MOTION":15.20950522,"ECCENTRICITY":0.0002185,"INCLINATION":97.4207,"RA_OF_ASC_NODE":274.0889,"ARG_OF_PERICENTER":138.2689,"MEAN_ANOMALY":221.8714,"EPHEMERIS_TYPE":0,"NORAD_CAT_ID":66716,"ELEMENT_SET_NO":999,"REV_AT_EPOCH":3538,"BSTAR":0.00015952,"MEAN_MOTION_DOT":0.00003463,"MEAN_MOTION_DDOT":0},{"OBJECT_NAME":"FLOCK 4H-14","OBJECT_ID":"2025-276BD","EPOCH":"2026-07-19T18:12:24.711840","CLASSIFICATION_TYPE":"U","MEAN_MOTION":15.21398573,"ECCENTRICITY":0.0002106,"INCLINATION":97.4189,"RA_OF_ASC_NODE":274.162,"ARG_OF_PERICENTER":137.6684,"MEAN_ANOMALY":222.4715,"EPHEMERIS_TYPE":0,"NORAD_CAT_ID":66717,"ELEMENT_SET_NO":999,"REV_AT_EPOCH":3464,"BSTAR":0.00016594,"MEAN_MOTION_DOT":0.00003653,"MEAN_MOTION_DDOT":0},{"OBJECT_NAME":"FLOCK 4H-15","OBJECT_ID":"2025-276BE","EPOCH":"2026-07-19T18:32:03.746112","CLASSIFICATION_TYPE":"U","MEAN_MOTION":15.19914102,"ECCENTRICITY":0.0002799,"INCLINATION":97.4203,"RA_OF_ASC_NODE":273.7247,"ARG_OF_PERICENTER":248.6956,"MEAN_ANOMALY":111.398,"EPHEMERIS_TYPE":0,"NORAD_CAT_ID":66718,"ELEMENT_SET_NO":999,"REV_AT_EPOCH":3536,"BSTAR":0.00015184,"MEAN_MOTION_DOT":0.00003194,"MEAN_MOTION_DDOT":0}]}
