FLOCK 4G-33             
1 62685U 25009CE  26200.77959052  .00003154  00000+0  12612-3 0  9994
2 62685  97.3937 280.2828 0005094 196.6347 163.4724 15.25828444 83776
FLOCK 4H-1              
1 66704U 25276AQ  26200.81734269  .00003457  00000+0  15955-3 0  9991
2 66704  97.4163 273.9919 0002489 161.2807 198.8520 15.20883092 35394
FLOCK 4H-2              
1 66705U 25276AR  26200.79021492  .00003384  00000+0  15503-3 0  9994
2 66705  97.4156 274.0155 0001920 149.6662 210.4685 15.21155611 35392
FLOCK 4H-3              
1 66706U 25276AS  26200.45380217  .00003169  00000+0  14914-3 0  9997
2 66706  97.4227 273.6073 0002828 227.0368 133.0630 15.20272437 35326
FLOCK 4H-4              
1 66707U 25276AT  26200.75376852  .00003579  00000+0  16902-3 0  9995
2 66707  97.4209 273.7672 0003455 231.0583 129.0344 15.20067564 35368
FLOCK 4H-5              
1 66708U 25276AU  26200.74365854  .00003417  00000+0  15750-3 0  9996
2 66708  97.4159 273.9411 0001604 136.2499 223.8864 15.20934370 35382
FLOCK 4H-6              
1 66709U 25276AV  26200.79052124  .00003377  00000+0  15704-3 0  9999
2 66709  97.4213 274.0316 0002964 187.6823 172.4368 15.20635606 35389
FLOCK 4H-7              
1 66710U 25276AW  26200.77298360  .00003289  00000+0  15406-3 0  9994
2 66710  97.4170 273.7678 0000697 245.8647 114.2515 15.20412016 35377
FLOCK 4H-8              
1 66711U 25276AX  26200.76355176  .00003487  00000+0  16262-3 0  9994
2 66711  97.4208 273.9115 0002066 240.7062 119.3967 15.20520085 35378
FLOCK 4H-9              
1 66712U 25276AY  26200.44747423  .00003397  00000+0  15715-3 0  9992
2 66712  97.4200 273.6963 0002868 196.3059 163.8084 15.20819696 35330
FLOCK 4H-10             
1 66713U 25276AZ  26200.73746098  .00003449  00000+0  16238-3 0  9991
2 66713  97.4176 273.6856 0003260 231.8753 128.2189 15.20195538 35363
FLOCK 4H-11             
1 66714U 25276BA  26200.75306139  .00007651  00000+0  32449-3 0  9993
2 66714  97.4181 274.3163 0001859 218.7624 141.3480 15.23395576 35404
FLOCK 4H-12             
1 66715U 25276BB  26200.76342367  .00003626  00000+0  16735-3 0  9996
2 66715  97.4173 273.9419 0002383 168.0557 192.0735 15.20848817 35695
FLOCK 4H-13             
1 66716U 25276BC  26200.73372771  .00003463  00000+0  15952-3 0  9995
2 66716  97.4207 274.0889 0002185 138.2689 221.8714 15.20950522 35383
FLOCK 4H-14             
1 66717U 25276BD  26200.75861935  .00003653  00000+0  16594-3 0  9997
2 66717  97.4189 274.1620 0002106 137.6684 222.4715 15.21398573 34647
FLOCK 4H-15             
1 66718U 25276BE  26200.77226558  .00003194  00000+0  15184-3 0  9990
2 66718  97.4203 273.7247 0002799 248.6956 111.3980 15.19914102 35367
